NIMIQ 4                 
1 33373U 08044A   26168.19548397  .00000000  00000+0  00000+0 0  9992
2 33373   0.0340  46.6513 0002086  35.7628 171.4489  1.00267747 64985
GALAXY 19 (G-19)        
1 33376U 08045A   26167.66564257 -.00000141  00000+0  00000+0 0  9997
2 33376   0.0375 264.2747 0002426 184.5055 318.7877  1.00271202 64896
ASTRA 1M                
1 33436U 08057A   26167.68869601  .00000118  00000+0  00000+0 0  9993
2 33436   0.2958  82.4397 0004674  24.4495  65.3540  1.00271394 45736
EUTELSAT HOTBIRD 13C    
1 33459U 08065A   26167.74615031 -.00000287  00000+0  00000+0 0  9998
2 33459   2.9496  79.1965 0003284   5.7498  38.3846  1.00270965 47343
EXPRESS-AM44            
1 33595U 09007A   26167.82524409 -.00000094  00000+0  00000+0 0  9999
2 33595   3.4623  78.3927 0003824   0.3269 112.4475  1.00270965 52289
NSS-9                   
1 33749U 09008A   26167.72110353  .00000068  00000+0  00000+0 0  9999
2 33749   1.2611  82.6574 0001951 343.7219 281.2706  1.00269855 63513
TELSTAR 11N             
1 34111U 09009A   26167.74875034 -.00000253  00000+0  00000+0 0  9997
2 34111   0.0168  53.6932 0002145  33.4556  49.8529  1.00270469 46245
WGS F2 (USA 204)        
1 34713U 09017A   26167.76752997  .00000065  00000+0  00000+0 0  9998
2 34713   0.0174   3.4109 0000408 255.4366 340.0007  1.00270971 45619
SES-7 (PROTOSTAR 2)     
1 34941U 09027A   26167.75919663 -.00000347  00000+0  00000+0 0  9990
2 34941   0.0373  64.0721 0000680 142.5603  79.9775  1.00271120 62625
MEASAT-3A               
1 35362U 09032A   26167.71651019 -.00000113  00000+0  00000+0 0  9999
2 35362   0.0224 348.3662 0002845  89.8542 244.7127  1.00271659  8024
GOES 14                 
1 35491U 09033A   26167.78428799 -.00000293  00000+0  00000+0 0  9996
2 35491   1.6895  83.0460 0001742  11.3319 235.0763  1.00110913  6587
FM-5                    
1 35493U 09034A   26168.13892112 -.00000204  00000+0  00000+0 0  9995
2 35493   0.0200 294.2923 0000882   8.9087 286.0483  1.00269115 46645
TERRESTAR-1             
1 35496U 09035A   26168.22369615 -.00000063  00000+0  00000+0 0  9999
2 35496   5.1812  48.7996 0002560  29.6869 156.5028  1.00270147 62133
ASIASAT 5               
1 35696U 09042A   26167.84731797  .00000000  00000+0  00000+0 0  9990
2 35696   0.0255  37.3123 0001586  50.6702 222.7177  1.00267309 61702
JCSAT-12 (JCSAT-RA)     
1 35755U 09044A   26167.78229464 -.00000330  00000+0  00000+0 0  9991
2 35755   0.0115 346.9047 0000436 330.2546   1.5569  1.00271328 61606
OPTUS D3                
1 35756U 09044B   26167.64449580 -.00000148  00000+0  00000+0 0  9997
2 35756   0.8749 268.9849 0002778 180.2603 203.8231  1.00269168 61566
NIMIQ 5                 
1 35873U 09050A   26168.13946308 -.00000260  00000+0  00000+0 0  9994
2 35873   0.0178 327.7989 0002642 113.8588 161.2497  1.00270102 61344
AMAZONAS 2              
1 35942U 09054A   26168.13946242 -.00000263  00000+0  00000+0 0  9995
2 35942   1.8161  83.0501 0003185 358.9667 161.5682  1.00268628 61188
COMSATBW-1              
1 35943U 09054B   26167.65826463  .00000022  00000+0  00000+0 0  9996
2 35943   0.0589 162.9941 0002640 294.8282 107.1095  1.00274882 61302
NSS-12                  
1 36032U 09058A   26167.76744330  .00000068  00000+0  00000+0 0  9994
2 36032   0.0448  51.6645 0004539 359.2601 187.4005  1.00273890 60917
THOR 6                  
1 36033U 09058B   26167.68470933 -.00000012  00000+0  00000+0 0  9991
2 36033   0.0149  82.6195 0001537 357.3564  70.6273  1.00270891 61001
INTELSAT 14 (IS-14)     
1 36097U 09064A   26167.74727698 -.00000276  00000+0  00000+0 0  9990
2 36097   0.0183 299.4074 0002180 139.5010  50.1276  1.00270182 60608
EUTELSAT 36B            
1 36101U 09065A   26167.93009735  .00000109  00000+0  00000+0 0  9997
2 36101   0.4914  81.1057 0005798   2.8196 206.6092  1.00273752 60703
INTELSAT 15 (IS-15)     
1 36106U 09067A   26167.95442034 -.00000188  00000+0  00000+0 0  9997
2 36106   0.0121 311.4719 0002047 137.7052 244.7718  1.00270326 41229
WGS F3 (USA 211)        
1 36108U 09068A   26168.13639406  .00000060  00000+0  00000+0 0  9990
2 36108   0.3274  85.8516 0000279 245.5354 213.1127  1.00271141 46593
DIRECTV 12              
1 36131U 09075A   26167.66451589 -.00000105  00000+0  00000+0 0  9996
2 36131   0.0103 112.1390 0000688 253.7384  35.5559  1.00265419 46540
BEIDOU-2 G1             
1 36287U 10001A   26167.64125492 -.00000285  00000+0  00000+0 0  9997
2 36287   4.2916  60.4059 0002267 296.2187 279.6071  1.00270453 60163
SDO                     
1 36395U 10005A   26167.50926725 -.00000097  00000+0  00000+0 0  9995
2 36395  34.6508  86.3517 0001708  44.3809 215.2958  1.00269934 60055
INTELSAT 16 (IS-16)     
1 36397U 10006A   26167.52721507 -.00000246  00000+0  00000+0 0  9997
2 36397   0.0158 311.4266 0001940 154.3895 272.5641  1.00269164 59646
EWS-G2 (GOES 15)        
1 36411U 10008A   26167.94125012  .00000014  00000+0  00000+0 0  9993
2 36411   1.2775  82.8648 0005411  42.2478 182.6632  1.00275936 59637
ECHOSTAR 14             
1 36499U 10010A   26168.12200880 -.00000004  00000+0  00000+0 0  9990
2 36499   0.0457  84.1921 0002361  20.0757  86.1619  1.00272734 46554
SES-1                   
1 36516U 10016A   26167.66486257 -.00000116  00000+0  00000+0 0  9992
2 36516   0.0124 336.5149 0002495 107.8858 318.8809  1.00271087 59027
