OBJECT_NAME,OBJECT_ID,EPOCH,MEAN_MOTION,ECCENTRICITY,INCLINATION,RA_OF_ASC_NODE,ARG_OF_PERICENTER,MEAN_ANOMALY,EPHEMERIS_TYPE,CLASSIFICATION_TYPE,NORAD_CAT_ID,ELEMENT_SET_NO,REV_AT_EPOCH,BSTAR,MEAN_MOTION_DOT,MEAN_MOTION_DDOT
NIMIQ 4,2008-044A,2026-06-17T04:41:29.815008,1.00267747,.0002086,0.0340,46.6513,35.7628,171.4489,0,U,33373,999,6498,0,0,0
GALAXY 19 (G-19),2008-045A,2026-06-16T15:58:31.518048,1.00271202,.0002426,0.0375,264.2747,184.5055,318.7877,0,U,33376,999,6489,0,-.141E-5,0
ASTRA 1M,2008-057A,2026-06-16T16:31:43.335264,1.00271394,.0004674,0.2958,82.4397,24.4495,65.3540,0,U,33436,999,4573,0,.118E-5,0
EUTELSAT HOTBIRD 13C,2008-065A,2026-06-16T17:54:27.386784,1.00270965,.0003284,2.9496,79.1965,5.7498,38.3846,0,U,33459,999,4734,0,-.287E-5,0
EXPRESS-AM44,2009-007A,2026-06-16T19:48:21.089376,1.00270965,.0003824,3.4623,78.3927,0.3269,112.4475,0,U,33595,999,5228,0,-.94E-6,0
NSS-9,2009-008A,2026-06-16T17:18:23.344992,1.00269855,.0001951,1.2611,82.6574,343.7219,281.2706,0,U,33749,999,6351,0,.68E-6,0
TELSTAR 11N,2009-009A,2026-06-16T17:58:12.029376,1.00270469,.0002145,0.0168,53.6932,33.4556,49.8529,0,U,34111,999,4624,0,-.253E-5,0
WGS F2 (USA 204),2009-017A,2026-06-16T18:25:14.589408,1.00270971,.0000408,0.0174,3.4109,255.4366,340.0007,0,U,34713,999,4561,0,.65E-6,0
SES-7 (PROTOSTAR 2),2009-027A,2026-06-16T18:13:14.588832,1.00271120,.000068,0.0373,64.0721,142.5603,79.9775,0,U,34941,999,6262,0,-.347E-5,0
MEASAT-3A,2009-032A,2026-06-16T17:11:46.480416,1.00271659,.0002845,0.0224,348.3662,89.8542,244.7127,0,U,35362,999,802,0,-.113E-5,0
GOES 14,2009-033A,2026-06-16T18:49:22.482336,1.00110913,.0001742,1.6895,83.0460,11.3319,235.0763,0,U,35491,999,658,0,-.293E-5,0
FM-5,2009-034A,2026-06-17T03:20:02.784768,1.00269115,.0000882,0.0200,294.2923,8.9087,286.0483,0,U,35493,999,4664,0,-.204E-5,0
TERRESTAR-1,2009-035A,2026-06-17T05:22:07.347360,1.00270147,.000256,5.1812,48.7996,29.6869,156.5028,0,U,35496,999,6213,0,-.63E-6,0
ASIASAT 5,2009-042A,2026-06-16T20:20:08.272608,1.00267309,.0001586,0.0255,37.3123,50.6702,222.7177,0,U,35696,999,6170,0,0,0
JCSAT-12 (JCSAT-RA),2009-044A,2026-06-16T18:46:30.256896,1.00271328,.0000436,0.0115,346.9047,330.2546,1.5569,0,U,35755,999,6160,0,-.33E-5,0
OPTUS D3,2009-044B,2026-06-16T15:28:04.437120,1.00269168,.0002778,0.8749,268.9849,180.2603,203.8231,0,U,35756,999,6156,0,-.148E-5,0
NIMIQ 5,2009-050A,2026-06-17T03:20:49.610112,1.00270102,.0002642,0.0178,327.7989,113.8588,161.2497,0,U,35873,999,6134,0,-.26E-5,0
AMAZONAS 2,2009-054A,2026-06-17T03:20:49.553088,1.00268628,.0003185,1.8161,83.0501,358.9667,161.5682,0,U,35942,999,6118,0,-.263E-5,0
COMSATBW-1,2009-054B,2026-06-16T15:47:54.064032,1.00274882,.000264,0.0589,162.9941,294.8282,107.1095,0,U,35943,999,6130,0,.22E-6,0
NSS-12,2009-058A,2026-06-16T18:25:07.101120,1.00273890,.0004539,0.0448,51.6645,359.2601,187.4005,0,U,36032,999,6091,0,.68E-6,0
THOR 6,2009-058B,2026-06-16T16:25:58.886112,1.00270891,.0001537,0.0149,82.6195,357.3564,70.6273,0,U,36033,999,6100,0,-.12E-6,0
INTELSAT 14 (IS-14),2009-064A,2026-06-16T17:56:04.731072,1.00270182,.000218,0.0183,299.4074,139.5010,50.1276,0,U,36097,999,6060,0,-.276E-5,0
EUTELSAT 36B,2009-065A,2026-06-16T22:19:20.411040,1.00273752,.0005798,0.4914,81.1057,2.8196,206.6092,0,U,36101,999,6070,0,.109E-5,0
INTELSAT 15 (IS-15),2009-067A,2026-06-16T22:54:21.917376,1.00270326,.0002047,0.0121,311.4719,137.7052,244.7718,0,U,36106,999,4122,0,-.188E-5,0
WGS F3 (USA 211),2009-068A,2026-06-17T03:16:24.446784,1.00271141,.0000279,0.3274,85.8516,245.5354,213.1127,0,U,36108,999,4659,0,.6E-6,0
DIRECTV 12,2009-075A,2026-06-16T15:56:54.172896,1.00265419,.0000688,0.0103,112.1390,253.7384,35.5559,0,U,36131,999,4654,0,-.105E-5,0
BEIDOU-2 G1,2010-001A,2026-06-16T15:23:24.425088,1.00270453,.0002267,4.2916,60.4059,296.2187,279.6071,0,U,36287,999,6016,0,-.285E-5,0
SDO,2010-005A,2026-06-16T12:13:20.690400,1.00269934,.0001708,34.6508,86.3517,44.3809,215.2958,0,U,36395,999,6005,0,-.97E-6,0
INTELSAT 16 (IS-16),2010-006A,2026-06-16T12:39:11.382048,1.00269164,.000194,0.0158,311.4266,154.3895,272.5641,0,U,36397,999,5964,0,-.246E-5,0
EWS-G2 (GOES 15),2010-008A,2026-06-16T22:35:24.010368,1.00275936,.0005411,1.2775,82.8648,42.2478,182.6632,0,U,36411,999,5963,0,.14E-6,0
ECHOSTAR 14,2010-010A,2026-06-17T02:55:41.560320,1.00272734,.0002361,0.0457,84.1921,20.0757,86.1619,0,U,36499,999,4655,0,-.4E-7,0
SES-1,2010-016A,2026-06-16T15:57:24.126048,1.00271087,.0002495,0.0124,336.5149,107.8858,318.8809,0,U,36516,999,5902,0,-.116E-5,0
